OBJECT_NAME,OBJECT_ID,EPOCH,MEAN_MOTION,ECCENTRICITY,INCLINATION,RA_OF_ASC_NODE,ARG_OF_PERICENTER,MEAN_ANOMALY,EPHEMERIS_TYPE,CLASSIFICATION_TYPE,NORAD_CAT_ID,ELEMENT_SET_NO,REV_AT_EPOCH,BSTAR,MEAN_MOTION_DOT,MEAN_MOTION_DDOT
LEMUR-1,2014-033AL,2026-07-05T08:22:07.900320,14.85316858,.0048598,97.7902,335.7525,20.2635,340.0495,0,U,40044,999,64816,.32917E-3,.2834E-4,0
LEMUR-2-GREENBERG,2017-042N,2026-07-06T00:48:20.965536,15.31950054,.00071999,97.3832,7.5791,298.7832,61.2686,0,U,42837,999,49127,.60348306E-3,.18577E-3,0
LEMUR-2-ANDIS,2017-042P,2026-07-06T00:26:53.888928,15.35656505,.00071354,97.3686,7.8149,296.9614,63.0900,0,U,42838,999,49134,.67732619E-3,.23464E-3,0
LEMUR-2-MONSON,2017-042Q,2026-07-05T22:51:38.352672,15.28584381,.00051367,97.4093,7.4417,288.1128,71.9552,0,U,42839,999,49103,.5741273E-3,.15912E-3,0
LEMUR-2-FURIAUS,2017-042R,2026-07-06T00:58:08.676480,15.30917624,.00067147,97.3780,5.4983,5.4345,354.6968,0,U,42840,999,49109,.68534226E-3,.20443E-3,0
LEMUR-2-PETERG,2017-042S,2026-07-05T19:38:52.881504,15.34763406,.00028436,97.3999,11.8886,266.1476,93.9442,0,U,42841,999,49129,.76528796E-3,.25768E-3,0
LEMUR-2-DEMBITZ,2017-042T,2026-07-05T11:19:19.318368,15.30893362,.0005327,97.3831,7.9707,318.3139,41.7696,0,U,42842,999,49114,.87057E-3,.25981E-3,0
LEMUR-2-ZACHARY,2017-042W,2026-07-05T20:01:45.808608,15.52038136,.00023624,97.3591,18.8883,297.2879,62.8133,0,U,42845,999,49209,.947594E-3,.57317E-3,0
LEMUR-2-AMANDA-SVANTE,2021-034B,2026-07-06T04:46:01.886016,15.35552160,.00040367,97.5745,266.0000,164.2126,195.9244,0,U,48269,999,28397,.1020665E-2,.35315E-3,0
LEMUR-2-SPECIAL-K,2021-034F,2026-07-06T05:41:36.307392,15.71456484,.0005773,97.5636,275.5626,220.9079,139.1750,0,U,48273,999,28467,.18452951E-2,.241712E-2,0
LEMUR-2-EMBRIONOVIS,2023-084AQ,2026-07-05T22:36:39.250944,15.38055358,.0007698,97.6318,331.8697,242.7381,117.3080,0,U,56970,999,17056,.4189854E-3,.15631E-3,0
LEMUR-2-DEVERILL-M-T,2023-100F,2026-07-06T01:47:53.897568,15.40758903,.00049011,99.4455,231.3007,336.6467,23.4549,0,U,57391,999,16415,.7154157E-3,.29242E-3,0
LEMUR-2-BASS,2023-174D,2026-07-06T04:57:34.140096,15.43775195,.00079598,97.3840,272.1926,104.5518,255.6613,0,U,58259,999,14829,.43196205E-3,.19495E-3,0
LEMUR-2-JK0903EM1407,2023-174CJ,2026-07-06T03:53:20.866848,15.52717559,.00043867,97.3917,278.1800,61.7347,298.4348,0,U,58336,999,14867,.47453854E-3,.29266E-3,0
LEMUR-2-MJR092620,2023-174CN,2026-07-06T04:44:35.813472,15.45621998,.0006146,97.3970,277.5857,59.8947,300.2910,0,U,58340,999,14858,.42636835E-3,.20481E-3,0
LEMUR-2-NIMBUS2000,2024-022A,2026-07-06T02:42:05.422464,15.40835853,.00096125,97.4093,37.3587,58.1498,302.0683,0,U,58899,999,13518,.57195117E-3,.23449E-3,0
LEMUR-2-VALHALLA,2024-022B,2026-07-06T02:44:05.003520,15.40286731,.00101105,97.4091,37.3384,54.0939,306.1244,0,U,58900,999,13518,.41936629E-3,.1685E-3,0
LEMUR-2-CAEL,2024-022E,2026-07-06T04:08:19.595328,15.41636766,.00080829,97.4074,38.3674,40.2046,319.9797,0,U,58903,999,13526,.42628852E-3,.17904E-3,0
LEMUR-2-JOHNNYTRUONG,2024-043BA,2026-07-05T22:19:55.424640,15.61990755,.00044488,97.5395,339.8154,120.9550,239.2145,0,U,59146,999,13096,.50314625E-3,.43923E-3,0
LEMUR-2-TOMATOKECHUP,2024-149D,2026-07-06T04:37:08.314176,15.36452734,.00028765,97.3790,269.2922,138.8733,221.2729,0,U,60471,999,10508,.32313537E-3,.11416E-3,0
LEMUR-2-STELLA,2024-149BT,2026-07-06T03:23:33.910944,15.12243072,.00012469,97.6729,269.6836,106.9534,253.1833,0,U,60533,999,10336,.64835405E-3,.1115E-3,0
LEMUR-2-MARHISYAM,2024-149BW,2026-07-06T04:40:43.214304,15.11655906,.00028719,97.6870,270.2058,83.2434,276.9123,0,U,60536,999,10335,.6311825E-3,.10677E-3,0
LEMUR-2-AHMED-ASRAR,2024-149DN,2026-07-05T19:31:46.233984,15.13163573,.00004153,97.6997,271.9881,275.0383,85.0800,0,U,60576,999,10338,.74247536E-3,.13114E-3,0
LEMUR-2-LLOYD,2024-149DP,2026-07-06T04:49:08.886720,15.09635414,.0005043,97.6737,268.3441,93.4282,266.7523,0,U,60577,999,10326,.60591696E-3,.9691E-4,0
LEMUR-2-SQUIRRELCOMM,2024-149DQ,2026-07-06T04:13:11.978112,15.07381618,.0004922,97.6702,268.0291,359.7505,0.3719,0,U,60578,999,10326,.48283645E-3,.7246E-4,0
LEMUR-2-SIERRINI,2024-149DR,2026-07-06T03:44:39.861888,15.11383664,.00065975,97.6837,269.8365,113.4903,246.7020,0,U,60579,999,10332,.69851692E-3,.1174E-3,0
LEMUR-2-WILSON,2025-009CP,2026-07-06T04:01:34.730112,14.95253729,.00026544,97.7019,265.2997,8.5969,351.5297,0,U,62694,999,8019,.30950733E-3,.3349E-4,0
LEMUR-2-STAR-FOX,2025-009CR,2026-07-06T04:54:40.885632,15.02771340,.0003531,97.6928,268.6782,71.7740,288.3869,0,U,62696,999,8041,.54906971E-3,.7286E-4,0
LEMUR-2-ARIANNA,2025-009CU,2026-07-06T04:52:28.437024,15.02770802,.00038727,97.6866,268.4362,76.7600,283.4057,0,U,62699,999,8041,.53415395E-3,.7087E-4,0
LEMUR-2-ALISIA,2025-009DB,2026-07-06T04:15:26.877888,15.03079135,.00033496,97.6949,269.2183,158.7297,201.4068,0,U,62706,999,10301,.67551543E-3,.9054E-4,0
